{
 "type": "FeatureCollection",
 "features": [
  {
   "type": "Feature",
   "geometry": {
    "type": "Point",
    "coordinates": [
     86.6935,
     27.9555
    ]
   },
   "properties": {
    "stop": "S01",
    "time_local": "2026-10-10 09:10",
    "alt_m": 4790.0,
    "photos": "gokyo.jpg",
    "memos": "gokyo_note.m4a",
    "transcript": "There's Gokyo Lake. The water is bright turquoise. On the left there is a long ridge of loose rock between the lake and the glacier. The lodges are at the near end of the lake.",
    "summary": "A turquoise lake is situated in a rugged, mountainous valley with a large glacier visible to the left. Steep, dark slopes rise directly from the lake's edge under a clear, cloudy sky.",
    "water_body": "yes",
    "water_body_evidence": "a turquoise lake / hiker: There's Gokyo Lake.",
    "water_body_source": "both",
    "glacial_setting": "yes",
    "glacial_setting_evidence": "a large glacier visible to the left of the lake / hiker: On the left there is a long ridge of loose rock between the lake and the glacier.",
    "glacial_setting_source": "both",
    "glacier_contact": "unclear",
    "glacier_contact_evidence": "On the left there is a long ridge of loose rock between the lake and the glacier.",
    "glacier_contact_source": "none",
    "calving_icebergs": "no",
    "calving_icebergs_evidence": "no icebergs visible on the water",
    "calving_icebergs_source": "photo",
    "steep_slopes_above": "yes",
    "steep_slopes_above_evidence": "steep, dark slopes rise directly from the lake shore",
    "steep_slopes_above_source": "photo",
    "fresh_scars_above": "no",
    "fresh_scars_above_evidence": "The slopes above the lake appear rugged and rocky, but no distinct fresh rockfall or landslide scars are clearly visible.",
    "fresh_scars_above_source": "photo",
    "dam_in_view": "unclear",
    "dam_in_view_evidence": "N/A",
    "dam_in_view_source": "none",
    "moraine_dam": "unclear",
    "moraine_dam_evidence": "On the left there is a long ridge of loose rock between the lake and the glacier.",
    "moraine_dam_source": "none",
    "low_freeboard": "unclear",
    "low_freeboard_evidence": "N/A",
    "low_freeboard_source": "none",
    "steep_dam_face": "unclear",
    "steep_dam_face_evidence": "N/A",
    "steep_dam_face_source": "none",
    "seepage_breach": "unclear",
    "seepage_breach_evidence": "N/A",
    "seepage_breach_source": "none",
    "downstream_in_view": "unclear",
    "downstream_in_view_evidence": "N/A",
    "downstream_in_view_source": "none",
    "downstream_people": "no",
    "downstream_people_evidence": "The lodges are at the near end of the lake.",
    "downstream_people_source": "voice",
    "downgrades": 10,
    "conflicts": "",
    "error": ""
   }
  },
  {
   "type": "Feature",
   "geometry": {
    "type": "Point",
    "coordinates": [
     86.92500000000001,
     27.8985
    ]
   },
   "properties": {
    "stop": "S02",
    "time_local": "2026-10-10 11:40",
    "alt_m": 5010.0,
    "photos": "imja_tsho.jpg",
    "memos": "imja_note.m4a",
    "transcript": "Grey milky lake under steep rock walls with snow in the gullies. I can't see the far end of the lake from here.",
    "summary": "A large, greenish lake is situated in a rugged, mountainous environment characterized by steep, rocky slopes and snow-capped peaks. The foreground consists of rough, rocky terrain.",
    "water_body": "yes",
    "water_body_evidence": "a lake / hiker: Grey milky lake",
    "water_body_source": "both",
    "glacial_setting": "yes",
    "glacial_setting_evidence": "snow-covered mountains and bare moraine ridges",
    "glacial_setting_source": "photo",
    "glacier_contact": "no",
    "glacier_contact_evidence": "no direct contact visible",
    "glacier_contact_source": "photo",
    "calving_icebergs": "no",
    "calving_icebergs_evidence": "no icebergs visible on the water",
    "calving_icebergs_source": "photo",
    "steep_slopes_above": "yes",
    "steep_slopes_above_evidence": "steep, rocky slopes rise directly above the lake / hiker: Grey milky lake under steep rock walls",
    "steep_slopes_above_source": "both",
    "fresh_scars_above": "unclear",
    "fresh_scars_above_evidence": "N/A",
    "fresh_scars_above_source": "none",
    "dam_in_view": "no",
    "dam_in_view_evidence": "I can't see the far end of the lake from here.",
    "dam_in_view_source": "voice",
    "moraine_dam": "unclear",
    "moraine_dam_evidence": "N/A",
    "moraine_dam_source": "none",
    "low_freeboard": "unclear",
    "low_freeboard_evidence": "N/A",
    "low_freeboard_source": "none",
    "steep_dam_face": "unclear",
    "steep_dam_face_evidence": "N/A",
    "steep_dam_face_source": "none",
    "seepage_breach": "unclear",
    "seepage_breach_evidence": "N/A",
    "seepage_breach_source": "none",
    "downstream_in_view": "unclear",
    "downstream_in_view_evidence": "I can't see the far end of the lake from here.",
    "downstream_in_view_source": "none",
    "downstream_people": "unclear",
    "downstream_people_evidence": "N/A",
    "downstream_people_source": "none",
    "downgrades": 4,
    "conflicts": "",
    "error": ""
   }
  },
  {
   "type": "Feature",
   "geometry": {
    "type": "Point",
    "coordinates": [
     86.477,
     27.860000000000003
    ]
   },
   "properties": {
    "stop": "S04",
    "time_local": "2026-10-10 14:05",
    "alt_m": 4580.0,
    "photos": "tsho_rolpa.jpg",
    "memos": "",
    "transcript": "",
    "summary": "A hiker stands by a large, opaque-colored lake set against a backdrop of steep, rocky mountains and snow-capped peaks. The slopes immediately surrounding the lake are steep and rocky.",
    "water_body": "yes",
    "water_body_evidence": "A large body of water is visible in the foreground.",
    "water_body_source": "photo",
    "glacial_setting": "yes",
    "glacial_setting_evidence": "Snow-capped mountains are visible in the background.",
    "glacial_setting_source": "photo",
    "glacier_contact": "no",
    "glacier_contact_evidence": "No glacier ice is visible touching the water.",
    "glacier_contact_source": "photo",
    "calving_icebergs": "no",
    "calving_icebergs_evidence": "No icebergs are visible on the water.",
    "calving_icebergs_source": "photo",
    "steep_slopes_above": "yes",
    "steep_slopes_above_evidence": "Steep, rocky slopes rise directly from the lake shore on the right side.",
    "steep_slopes_above_source": "photo",
    "fresh_scars_above": "unclear",
    "fresh_scars_above_evidence": "The slopes above the lake show rocky debris and scree, but no clearly defined fresh rockfall or landslide scars are visible.",
    "fresh_scars_above_source": "none",
    "dam_in_view": "unclear",
    "dam_in_view_evidence": "The far end of the lake is not clearly visible to determine if an outlet and dam are present.",
    "dam_in_view_source": "none",
    "moraine_dam": "unclear",
    "moraine_dam_evidence": "No moraine dam is visible.",
    "moraine_dam_source": "none",
    "low_freeboard": "unclear",
    "low_freeboard_evidence": "No dam is visible to assess freeboard.",
    "low_freeboard_source": "none",
    "steep_dam_face": "unclear",
    "steep_dam_face_evidence": "No dam is visible.",
    "steep_dam_face_source": "none",
    "seepage_breach": "unclear",
    "seepage_breach_evidence": "No dam is visible.",
    "seepage_breach_source": "none",
    "downstream_in_view": "unclear",
    "downstream_in_view_evidence": "The land below the lake's outlet is not visible.",
    "downstream_in_view_source": "none",
    "downstream_people": "unclear",
    "downstream_people_evidence": "No trails, houses, bridges or fields are visible downstream of the water.",
    "downstream_people_source": "none",
    "downgrades": 2,
    "conflicts": "",
    "error": ""
   }
  }
 ]
}